start=new Date('2022-10-13T00:00:00.000Z').valueOf();
sats=[{"COUNTRY_CODE":"US","FILE":"3606891","DECAY_DATE":null,"APOAPSIS":"548.947","MEAN_MOTION_DOT":"0.00000304","PERIOD":"95.593","CENTER_NAME":"EARTH","REV_AT_EPOCH":"8512","INCLINATION":"53.0561","SITE":"AFETR","ECCENTRICITY":"0.00024660","TIME_SYSTEM":"UTC","BSTAR":"0.00003935200000","TLE_LINE2":"2 48122  53.0561 341.3609 0002466  41.0069 319.1105 15.06391726 85129","CLASSIFICATION_TYPE":"U","ELEMENT_SET_NO":"999","PERIAPSIS":"545.531","SEMIMAJOR_AXIS":"6925.374","LAUNCH_DATE":"2021-04-07","MEAN_MOTION":"15.06391726","OBJECT_NAME":"STARLINK-2463","ARG_OF_PERICENTER":"41.0069","RA_OF_ASC_NODE":"341.3609","EPHEMERIS_TYPE":"0","NORAD_CAT_ID":"48122","RCS_SIZE":"LARGE","OBJECT_ID":"2021-027AG","TLE_LINE1":"1 48122U 21027AG  22285.63686359  .00000304  00000-0  39352-4 0  9997","MEAN_MOTION_DDOT":"0.0000000000000","MEAN_ELEMENT_THEORY":"SGP4","MEAN_ANOMALY":"319.1105","EPOCH":"2022-10-12T15:17:05.014176","REF_FRAME":"TEME","GP_ID":"214920798","OBJECT_TYPE":"PAYLOAD"},{"COUNTRY_CODE":"US","FILE":"3606891","DECAY_DATE":null,"APOAPSIS":"548.560","MEAN_MOTION_DOT":"0.00001145","PERIOD":"95.592","CENTER_NAME":"EARTH","REV_AT_EPOCH":"8518","INCLINATION":"53.0560","SITE":"AFETR","TIME_SYSTEM":"UTC","ECCENTRICITY":"0.00019260","TLE_LINE2":"2 48123  53.0560 336.6546 0001926  50.8567 309.2592 15.06395952 85188","BSTAR":"0.00009574900000","CLASSIFICATION_TYPE":"U","ELEMENT_SET_NO":"999","SEMIMAJOR_AXIS":"6925.361","PERIAPSIS":"545.892","LAUNCH_DATE":"2021-04-07","MEAN_MOTION":"15.06395952","ARG_OF_PERICENTER":"50.8567","OBJECT_NAME":"STARLINK-2464","RA_OF_ASC_NODE":"336.6546","NORAD_CAT_ID":"48123","EPHEMERIS_TYPE":"0","TLE_LINE1":"1 48123U 21027AH  22285.58018304  .00001145  00000-0  95749-4 0  9997","OBJECT_ID":"2021-027AH","RCS_SIZE":"LARGE","MEAN_MOTION_DDOT":"0.0000000000000","MEAN_ELEMENT_THEORY":"SGP4","MEAN_ANOMALY":"309.2592","EPOCH":"2022-10-12T13:55:27.814656","REF_FRAME":"TEME","OBJECT_TYPE":"PAYLOAD","GP_ID":"214920547"},{"GP_ID":"214881653","OBJECT_TYPE":"PAYLOAD","REF_FRAME":"TEME","EPOCH":"2022-10-12T13:54:09.179424","MEAN_ANOMALY":"319.0485","MEAN_ELEMENT_THEORY":"SGP4","MEAN_MOTION_DDOT":"0.0000000000000","RCS_SIZE":"LARGE","OBJECT_ID":"2021-027AJ","TLE_LINE1":"1 48124U 21027AJ  22285.57927291  .00001475  00000-0  11790-3 0  9990","EPHEMERIS_TYPE":"0","NORAD_CAT_ID":"48124","RA_OF_ASC_NODE":"346.6529","OBJECT_NAME":"STARLINK-2465","ARG_OF_PERICENTER":"41.0661","MEAN_MOTION":"15.06393394","LAUNCH_DATE":"2021-04-07","PERIAPSIS":"545.788","SEMIMAJOR_AXIS":"6925.369","ELEMENT_SET_NO":"999","CLASSIFICATION_TYPE":"U","TLE_LINE2":"2 48124  53.0550 346.6529 0002088  41.0661 319.0485 15.06393394 85039","BSTAR":"0.00011790000000","TIME_SYSTEM":"UTC","ECCENTRICITY":"0.00020880","SITE":"AFETR","INCLINATION":"53.0550","REV_AT_EPOCH":"8503","CENTER_NAME":"EARTH","PERIOD":"95.593","MEAN_MOTION_DOT":"0.00001475","APOAPSIS":"548.680","DECAY_DATE":null,"FILE":"3606148","COUNTRY_CODE":"US"},{"OBJECT_NAME":"STARLINK-2466","ARG_OF_PERICENTER":"65.7367","RA_OF_ASC_NODE":"357.4280","EPHEMERIS_TYPE":"0","NORAD_CAT_ID":"48125","PERIAPSIS":"546.176","SEMIMAJOR_AXIS":"6925.381","LAUNCH_DATE":"2021-04-07","MEAN_MOTION":"15.06389355","EPOCH":"2022-10-12T11:03:01.177920","REF_FRAME":"TEME","GP_ID":"214881406","OBJECT_TYPE":"PAYLOAD","RCS_SIZE":"LARGE","TLE_LINE1":"1 48125U 21027AK  22285.46043030 -.00000264  00000-0  11874-5 0  9990","OBJECT_ID":"2021-027AK","MEAN_MOTION_DDOT":"0.0000000000000","MEAN_ELEMENT_THEORY":"SGP4","MEAN_ANOMALY":"294.3783","MEAN_MOTION_DOT":"-0.00000264","PERIOD":"95.593","CENTER_NAME":"EARTH","COUNTRY_CODE":"US","FILE":"3606148","DECAY_DATE":null,"APOAPSIS":"548.316","TLE_LINE2":"2 48125  53.0570 357.4280 0001545  65.7367 294.3783 15.06389355 84889","BSTAR":"0.00000118740000","CLASSIFICATION_TYPE":"U","ELEMENT_SET_NO":"999","REV_AT_EPOCH":"8488","INCLINATION":"53.0570","SITE":"AFETR","ECCENTRICITY":"0.00015450","TIME_SYSTEM":"UTC"},{"REV_AT_EPOCH":"8477","INCLINATION":"53.0552","SITE":"AFETR","TIME_SYSTEM":"UTC","ECCENTRICITY":"0.00019520","BSTAR":"0.00145490000000","TLE_LINE2":"2 48126  53.0552 336.7992 0001952  45.5078 314.6070 15.06409905 84774","CLASSIFICATION_TYPE":"U","ELEMENT_SET_NO":"999","COUNTRY_CODE":"US","FILE":"3606408","DECAY_DATE":null,"APOAPSIS":"548.535","MEAN_MOTION_DOT":"0.00021462","PERIOD":"95.592","CENTER_NAME":"EARTH","RCS_SIZE":"LARGE","OBJECT_ID":"2021-027AL","TLE_LINE1":"1 48126U 21027AL  22285.54701774  .00021462  00000-0  14549-2 0  9997","MEAN_MOTION_DDOT":"0.0000000000000","MEAN_ELEMENT_THEORY":"SGP4","MEAN_ANOMALY":"314.6070","EPOCH":"2022-10-12T13:07:42.332736","REF_FRAME":"TEME","GP_ID":"214888445","OBJECT_TYPE":"PAYLOAD","PERIAPSIS":"545.831","SEMIMAJOR_AXIS":"6925.318","LAUNCH_DATE":"2021-04-07","MEAN_MOTION":"15.06409905","OBJECT_NAME":"STARLINK-2467","ARG_OF_PERICENTER":"45.5078","RA_OF_ASC_NODE":"336.7992","EPHEMERIS_TYPE":"0","NORAD_CAT_ID":"48126"},{"REV_AT_EPOCH":"8491","INCLINATION":"53.0544","SITE":"AFETR","ECCENTRICITY":"0.00016300","TIME_SYSTEM":"UTC","BSTAR":"0.00054390000000","TLE_LINE2":"2 48127  53.0544 356.2532 0001630  52.8688 307.2449 15.06411103 84911","CLASSIFICATION_TYPE":"U","ELEMENT_SET_NO":"999","COUNTRY_CODE":"US","FILE":"3606891","DECAY_DATE":null,"APOAPSIS":"548.308","MEAN_MOTION_DOT":"0.00007831","PERIOD":"95.591","CENTER_NAME":"EARTH","OBJECT_ID":"2021-027AM","TLE_LINE1":"1 48127U 21027AM  22285.67048730  .00007831  00000-0  54390-3 0  9991","RCS_SIZE":"LARGE","MEAN_MOTION_DDOT":"0.0000000000000","MEAN_ELEMENT_THEORY":"SGP4","MEAN_ANOMALY":"307.2449","EPOCH":"2022-10-12T16:05:30.102720","REF_FRAME":"TEME","OBJECT_TYPE":"PAYLOAD","GP_ID":"214921048","SEMIMAJOR_AXIS":"6925.315","PERIAPSIS":"546.051","LAUNCH_DATE":"2021-04-07","MEAN_MOTION":"15.06411103","ARG_OF_PERICENTER":"52.8688","OBJECT_NAME":"STARLINK-2468","RA_OF_ASC_NODE":"356.2532","NORAD_CAT_ID":"48127","EPHEMERIS_TYPE":"0"},{"OBJECT_TYPE":"PAYLOAD","GP_ID":"214881153","EPOCH":"2022-10-12T09:15:29.657088","REF_FRAME":"TEME","MEAN_ELEMENT_THEORY":"SGP4","MEAN_ANOMALY":"298.5110","TLE_LINE1":"1 48128U 21027AN  22285.38575992  .00005691  00000-0  40063-3 0  9999","OBJECT_ID":"2021-027AN","RCS_SIZE":"LARGE","MEAN_MOTION_DDOT":"0.0000000000000","RA_OF_ASC_NODE":"287.6138","NORAD_CAT_ID":"48128","EPHEMERIS_TYPE":"0","ARG_OF_PERICENTER":"61.6097","OBJECT_NAME":"STARLINK-2469","MEAN_MOTION":"15.06400392","SEMIMAJOR_AXIS":"6925.347","PERIAPSIS":"545.714","LAUNCH_DATE":"2021-04-07","CLASSIFICATION_TYPE":"U","ELEMENT_SET_NO":"999","BSTAR":"0.00040063000000","TLE_LINE2":"2 48128  53.0528 287.6138 0002164  61.6097 298.5110 15.06400392 85846","SITE":"AFETR","ECCENTRICITY":"0.00021640","TIME_SYSTEM":"UTC","REV_AT_EPOCH":"8584","INCLINATION":"53.0528","CENTER_NAME":"EARTH","MEAN_MOTION_DOT":"0.00005691","PERIOD":"95.592","DECAY_DATE":null,"APOAPSIS":"548.711","COUNTRY_CODE":"US","FILE":"3606148"},{"ELEMENT_SET_NO":"999","CLASSIFICATION_TYPE":"U","TLE_LINE2":"2 48129  53.0536 356.5812 0001977  53.3940 306.7231 15.06387118 84909","BSTAR":"0.00085466000000","ECCENTRICITY":"0.00019770","TIME_SYSTEM":"UTC","SITE":"AFETR","INCLINATION":"53.0536","REV_AT_EPOCH":"8490","CENTER_NAME":"EARTH","PERIOD":"95.593","MEAN_MOTION_DOT":"0.00012467","APOAPSIS":"548.622","DECAY_DATE":null,"FILE":"3606891","COUNTRY_CODE":"US","OBJECT_TYPE":"PAYLOAD","GP_ID":"214921534","REF_FRAME":"TEME","EPOCH":"2022-10-12T14:19:22.160928","MEAN_ANOMALY":"306.7231","MEAN_ELEMENT_THEORY":"SGP4","MEAN_MOTION_DDOT":"0.0000000000000","TLE_LINE1":"1 48129U 21027AP  22285.59678427  .00012467  00000-0  85466-3 0  9995","OBJECT_ID":"2021-027AP","RCS_SIZE":"LARGE","NORAD_CAT_ID":"48129","EPHEMERIS_TYPE":"0","RA_OF_ASC_NODE":"356.5812","ARG_OF_PERICENTER":"53.3940","OBJECT_NAME":"STARLINK-2471","MEAN_MOTION":"15.06387118","LAUNCH_DATE":"2021-04-07","SEMIMAJOR_AXIS":"6925.388","PERIAPSIS":"545.884"},{"COUNTRY_CODE":"US","FILE":"3606891","DECAY_DATE":null,"APOAPSIS":"548.403","MEAN_MOTION_DOT":"0.00003765","PERIOD":"95.593","CENTER_NAME":"EARTH","REV_AT_EPOCH":"8485","INCLINATION":"53.0546","SITE":"AFETR","ECCENTRICITY":"0.00016700","TIME_SYSTEM":"UTC","BSTAR":"0.00027161000000","TLE_LINE2":"2 48130  53.0546   1.0345 0001670  50.4606 309.6530 15.06389152 84850","CLASSIFICATION_TYPE":"U","ELEMENT_SET_NO":"999","SEMIMAJOR_AXIS":"6925.382","PERIAPSIS":"546.090","LAUNCH_DATE":"2021-04-07","MEAN_MOTION":"15.06389152","ARG_OF_PERICENTER":"50.4606","OBJECT_NAME":"STARLINK-2472","RA_OF_ASC_NODE":"1.0345","NORAD_CAT_ID":"48130","EPHEMERIS_TYPE":"0","OBJECT_ID":"2021-027AQ","TLE_LINE1":"1 48130U 21027AQ  22285.71884514  .00003765  00000-0  27161-3 0  9996","RCS_SIZE":"LARGE","MEAN_MOTION_DDOT":"0.0000000000000","MEAN_ELEMENT_THEORY":"SGP4","MEAN_ANOMALY":"309.6530","EPOCH":"2022-10-12T17:15:08.220096","REF_FRAME":"TEME","OBJECT_TYPE":"PAYLOAD","GP_ID":"214920799"},{"RCS_SIZE":"LARGE","TLE_LINE1":"1 48131U 21027AR  22285.53964564  .00002038  00000-0  15572-3 0  9996","OBJECT_ID":"2021-027AR","MEAN_MOTION_DDOT":"0.0000000000000","MEAN_ELEMENT_THEORY":"SGP4","MEAN_ANOMALY":"314.9441","EPOCH":"2022-10-12T12:57:05.383296","REF_FRAME":"TEME","GP_ID":"214880907","OBJECT_TYPE":"PAYLOAD","PERIAPSIS":"545.971","SEMIMAJOR_AXIS":"6925.385","LAUNCH_DATE":"2021-04-07","MEAN_MOTION":"15.06387974","OBJECT_NAME":"STARLINK-2473","ARG_OF_PERICENTER":"45.1698","RA_OF_ASC_NODE":"336.8181","EPHEMERIS_TYPE":"0","NORAD_CAT_ID":"48131","REV_AT_EPOCH":"8517","INCLINATION":"53.0550","SITE":"AFETR","ECCENTRICITY":"0.00018470","TIME_SYSTEM":"UTC","TLE_LINE2":"2 48131  53.0550 336.8181 0001847  45.1698 314.9441 15.06387974 85177","BSTAR":"0.00015572000000","CLASSIFICATION_TYPE":"U","ELEMENT_SET_NO":"999","COUNTRY_CODE":"US","FILE":"3606148","DECAY_DATE":null,"APOAPSIS":"548.530","MEAN_MOTION_DOT":"0.00002038","PERIOD":"95.593","CENTER_NAME":"EARTH"}];
